[Satellite]
VERSION=1.1
NAME=CZ-2C R/B
NICKNAME=CZ-2C R/B
TLE1=1 54039U 22132E   22297.24415520  .00003283  00000+0  17108-3 0  9991
TLE2=2 54039  97.2522 302.1146 0047738 171.3779 317.7481 15.15665639  1707
STATUS=0
